{
  "type": "FeatureCollection",
  "features": [
    {
      "type": "Feature",
      "properties": {
        "norad_id": 54259,
        "name": "EUTELSAT 10B",
        "group": "eutelsat",
        "lat": 0.03907820900811637,
        "lon": -152.9356377931767,
        "alt_km": 35787.25085958349,
        "timestamp": "2025-12-12T07:43:20.175245+00:00",
        "meta_object_name": "EUTELSAT 10B",
        "meta_object_id": "2022-157A",
        "meta_epoch": "2025-12-11T22:07:10.598880",
        "meta_mean_motion": 1.00265128,
        "meta_eccentricity": 5.068e-05,
        "meta_inclination": 0.0597,
        "meta_ra_of_asc_node": 99.6112,
        "meta_arg_of_pericenter": 35.707,
        "meta_mean_anomaly": 287.3212,
        "meta_ephemeris_type": 0,
        "meta_classification_type": "U",
        "meta_norad_cat_id": 54259,
        "meta_element_set_no": 999,
        "meta_rev_at_epoch": 1114,
        "meta_bstar": 0,
        "meta_mean_motion_dot": 7.6e-07,
        "meta_mean_motion_ddot": 0,
        "tle_line1": "1 54259U 22157A   25345.92165045  .00000076  00000+0  00000+0 0  9994",
        "tle_line2": "2 54259   0.0597  99.6112 0000506  35.7070 287.3212  1.00265128 11146"
      },
      "geometry": {
        "type": "Point",
        "coordinates": [
          -152.9356377931767,
          0.03907820900811637
        ]
      }
    },
    {
      "type": "Feature",
      "properties": {
        "norad_id": 59346,
        "name": "EUTELSAT 36D",
        "group": "eutelsat",
        "lat": -0.034034982242792534,
        "lon": -127.06686698394519,
        "alt_km": 35787.53629074725,
        "timestamp": "2025-12-12T07:43:20.175257+00:00",
        "meta_object_name": "EUTELSAT 36D",
        "meta_object_id": "2024-059A",
        "meta_epoch": "2025-12-11T22:14:32.394048",
        "meta_mean_motion": 1.00269358,
        "meta_eccentricity": 4.243e-05,
        "meta_inclination": 0.0183,
        "meta_ra_of_asc_node": 347.9639,
        "meta_arg_of_pericenter": 2.3709,
        "meta_mean_anomaly": 100.023,
        "meta_ephemeris_type": 0,
        "meta_classification_type": "U",
        "meta_norad_cat_id": 59346,
        "meta_element_set_no": 999,
        "meta_rev_at_epoch": 627,
        "meta_bstar": 0,
        "meta_mean_motion_dot": 0,
        "meta_mean_motion_ddot": 0,
        "tle_line1": "1 59346U 24059A   25345.92676382  .00000000  00000+0  00000+0 0  9997",
        "tle_line2": "2 59346   0.0183 347.9639 0000424   2.3709 100.0230  1.00269358  6278"
      },
      "geometry": {
        "type": "Point",
        "coordinates": [
          -127.06686698394519,
          -0.034034982242792534
        ]
      }
    }
  ]
}